0 FENGYUN 1C DEB
1 30837U 99025AVX 13281.77776595  .00000441  00000-0  27169-3 0  5379
2 30837 098.9736 314.9485 0035162 163.7328 249.9617 14.10432373340672
0 FENGYUN 1C DEB
1 30837U 99025AVX 13283.05502679  .00000373  00000-0  23360-3 0  5386
2 30837 098.9734 316.2232 0035206 160.1938 255.2708 14.10435264340855
0 FENGYUN 1C DEB
1 30837U 99025AVX 13285.41069485  .00000149  00000-0  10816-3 0  5407
2 30837 098.9729 318.5744 0035280 153.7532 336.1438 14.10438588341180
0 FENGYUN 1C DEB
1 30837U 99025AVX 13286.81506255  .00000206  00000-0  14026-3 0  5415
2 30837 098.9724 319.9762 0035303 149.9011 266.8327 14.10439192341385
0 FENGYUN 1C DEB
1 30837U 99025AVX 13288.31902635  .00000424  00000-0  26198-3 0  5420
2 30837 098.9719 321.4772 0035339 145.7480 343.2579 14.10439946341590
0 FENGYUN 1C DEB
1 30837U 99025AVX 13289.79385042  .00000499  00000-0  30406-3 0  5430
2 30837 098.9716 322.9489 0035358 141.7394 271.6689 14.10440370341802
0 FENGYUN 1C DEB
1 30837U 99025AVX 13291.06614350  .00000555  00000-0  33539-3 0  5444
2 30837 098.9714 324.2184 0035389 138.2800 251.7311 14.10441095341989
0 FENGYUN 1C DEB
1 30837U 99025AVX 13292.58015980  .00000560  00000-0  33812-3 0  5457
2 30837 098.9714 325.7288 0035424 134.1360 019.1690 14.10442922342196
0 FENGYUN 1C DEB
1 30837U 99025AVX 13294.04568376  .00000396  00000-0  24621-3 0  5468
2 30837 098.9714 327.1910 0035435 130.1293 260.3848 14.10445790342402
0 FENGYUN 1C DEB
1 30837U 99025AVX 13295.32871649  .00000296  00000-0  19014-3 0  5470
2 30837 098.9715 328.4711 0035450 126.6086 295.0230 14.10447875342588
